{
  "type": "FeatureCollection",
  "features": [
    {
      "type": "Feature",
      "properties": {
        "norad_id": 34420,
        "name": "COSMOS 2251 DEB",
        "group": "cosmos-2251-debris",
        "lat": -46.879472674330444,
        "lon": -40.121461979801595,
        "alt_km": 600.6011372483708,
        "timestamp": "2025-12-03T08:58:46.397176+00:00",
        "meta_object_name": "COSMOS 2251 DEB",
        "meta_object_id": "1993-036RM",
        "meta_epoch": "2025-12-02T21:04:34.638816",
        "meta_mean_motion": 14.68248362,
        "meta_eccentricity": 0.0106978,
        "meta_inclination": 74.0318,
        "meta_ra_of_asc_node": 123.0333,
        "meta_arg_of_pericenter": 246.4218,
        "meta_mean_anomaly": 242.7712,
        "meta_ephemeris_type": 0,
        "meta_classification_type": "U",
        "meta_norad_cat_id": 34420,
        "meta_element_set_no": 999,
        "meta_rev_at_epoch": 89625,
        "meta_bstar": 0.00031395,
        "meta_mean_motion_dot": 1.937e-05,
        "meta_mean_motion_ddot": 0,
        "tle_line1": "1 34420U 93036RM  25336.87817869  .00001937  00000+0  31395-3 0  9990",
        "tle_line2": "2 34420  74.0318 123.0333 0106978 246.4218 242.7712 14.68248362896250"
      },
      "geometry": {
        "type": "Point",
        "coordinates": [
          -40.121461979801595,
          -46.879472674330444
        ]
      }
    },
    {
      "type": "Feature",
      "properties": {
        "norad_id": 34425,
        "name": "COSMOS 2251 DEB",
        "group": "cosmos-2251-debris",
        "lat": 13.969729205867251,
        "lon": -111.62217948662648,
        "alt_km": 672.5863123288609,
        "timestamp": "2025-12-03T08:58:46.397186+00:00",
        "meta_object_name": "COSMOS 2251 DEB",
        "meta_object_id": "1993-036RS",
        "meta_epoch": "2025-12-03T00:00:48.271680",
        "meta_mean_motion": 14.62028367,
        "meta_eccentricity": 0.0025536,
        "meta_inclination": 74.0205,
        "meta_ra_of_asc_node": 73.1811,
        "meta_arg_of_pericenter": 201.7404,
        "meta_mean_anomaly": 158.2681,
        "meta_ephemeris_type": 0,
        "meta_classification_type": "U",
        "meta_norad_cat_id": 34425,
        "meta_element_set_no": 999,
        "meta_rev_at_epoch": 88598,
        "meta_bstar": 0.00093513,
        "meta_mean_motion_dot": 4.686e-05,
        "meta_mean_motion_ddot": 0,
        "tle_line1": "1 34425U 93036RS  25337.00055870  .00004686  00000+0  93513-3 0  9991",
        "tle_line2": "2 34425  74.0205  73.1811 0025536 201.7404 158.2681 14.62028367885986"
      },
      "geometry": {
        "type": "Point",
        "coordinates": [
          -111.62217948662648,
          13.969729205867251
        ]
      }
    },
    {
      "type": "Feature",
      "properties": {
        "norad_id": 34429,
        "name": "COSMOS 2251 DEB",
        "group": "cosmos-2251-debris",
        "lat": 34.27769894163106,
        "lon": -2.992167513181214,
        "alt_km": 453.78234355314635,
        "timestamp": "2025-12-03T08:58:46.397196+00:00",
        "meta_object_name": "COSMOS 2251 DEB",
        "meta_object_id": "1993-036RW",
        "meta_epoch": "2025-12-03T01:12:03.144096",
        "meta_mean_motion": 15.36756361,
        "meta_eccentricity": 0.0005451,
        "meta_inclination": 73.9725,
        "meta_ra_of_asc_node": 189.0065,
        "meta_arg_of_pericenter": 40.4282,
        "meta_mean_anomaly": 111.1699,
        "meta_ephemeris_type": 0,
        "meta_classification_type": "U",
        "meta_norad_cat_id": 34429,
        "meta_element_set_no": 999,
        "meta_rev_at_epoch": 89299,
        "meta_bstar": 0.0051309,
        "meta_mean_motion_dot": 0.00189054,
        "meta_mean_motion_ddot": 0,
        "tle_line1": "1 34429U 93036RW  25337.05003639  .00189054  00000+0  51309-2 0  9995",
        "tle_line2": "2 34429  73.9725 189.0065 0005451  40.4282 111.1699 15.36756361892999"
      },
      "geometry": {
        "type": "Point",
        "coordinates": [
          -2.992167513181214,
          34.27769894163106
        ]
      }
    },
    {
      "type": "Feature",
      "properties": {
        "norad_id": 34430,
        "name": "COSMOS 2251 DEB",
        "group": "cosmos-2251-debris",
        "lat": -15.835013865064184,
        "lon": -44.00960609440662,
        "alt_km": 736.1699904325342,
        "timestamp": "2025-12-03T08:58:46.397206+00:00",
        "meta_object_name": "COSMOS 2251 DEB",
        "meta_object_id": "1993-036RX",
        "meta_epoch": "2025-12-02T09:42:20.857248",
        "meta_mean_motion": 14.39579125,
        "meta_eccentricity": 0.00598494,
        "meta_inclination": 74.051,
        "meta_ra_of_asc_node": 322.4311,
        "meta_arg_of_pericenter": 34.7279,
        "meta_mean_anomaly": 325.7759,
        "meta_ephemeris_type": 0,
        "meta_classification_type": "U",
        "meta_norad_cat_id": 34430,
        "meta_element_set_no": 999,
        "meta_rev_at_epoch": 87806,
        "meta_bstar": 0.00059798163,
        "meta_mean_motion_dot": 1.881e-05,
        "meta_mean_motion_ddot": 0,
        "tle_line1": "1 34430U 93036RX  25336.40440807  .00001881  00000+0  59798-3 0  9999",
        "tle_line2": "2 34430  74.0510 322.4311 0059849  34.7279 325.7759 14.39579125878069"
      },
      "geometry": {
        "type": "Point",
        "coordinates": [
          -44.00960609440662,
          -15.835013865064184
        ]
      }
    },
    {
      "type": "Feature",
      "properties": {
        "norad_id": 34431,
        "name": "COSMOS 2251 DEB",
        "group": "cosmos-2251-debris",
        "lat": -66.48181576744031,
        "lon": 53.154881396074444,
        "alt_km": 787.3558775738875,
        "timestamp": "2025-12-03T08:58:46.397217+00:00",
        "meta_object_name": "COSMOS 2251 DEB",
        "meta_object_id": "1993-036RY",
        "meta_epoch": "2025-12-03T01:04:59.473056",
        "meta_mean_motion": 14.28727352,
        "meta_eccentricity": 0.0068759,
        "meta_inclination": 74.074,
        "meta_ra_of_asc_node": 192.7465,
        "meta_arg_of_pericenter": 181.072,
        "meta_mean_anomaly": 179.0293,
        "meta_ephemeris_type": 0,
        "meta_classification_type": "U",
        "meta_norad_cat_id": 34431,
        "meta_element_set_no": 999,
        "meta_rev_at_epoch": 87004,
        "meta_bstar": 0.00069985,
        "meta_mean_motion_dot": 1.781e-05,
        "meta_mean_motion_ddot": 0,
        "tle_line1": "1 34431U 93036RY  25337.04513279  .00001781  00000+0  69985-3 0  9993",
        "tle_line2": "2 34431  74.0740 192.7465 0068759 181.0720 179.0293 14.28727352870048"
      },
      "geometry": {
        "type": "Point",
        "coordinates": [
          53.154881396074444,
          -66.48181576744031
        ]
      }
    },
    {
      "type": "Feature",
      "properties": {
        "norad_id": 34432,
        "name": "COSMOS 2251 DEB",
        "group": "cosmos-2251-debris",
        "lat": 45.53422531896295,
        "lon": 136.0204227051065,
        "alt_km": 999.6444914984995,
        "timestamp": "2025-12-03T08:58:46.397227+00:00",
        "meta_object_name": "COSMOS 2251 DEB",
        "meta_object_id": "1993-036RZ",
        "meta_epoch": "2025-12-03T02:28:17.071104",
        "meta_mean_motion": 14.02836728,
        "meta_eccentricity": 0.0183185,
        "meta_inclination": 73.8275,
        "meta_ra_of_asc_node": 119.3014,
        "meta_arg_of_pericenter": 203.436,
        "meta_mean_anomaly": 276.5797,
        "meta_ephemeris_type": 0,
        "meta_classification_type": "U",
        "meta_norad_cat_id": 34432,
        "meta_element_set_no": 999,
        "meta_rev_at_epoch": 85549,
        "meta_bstar": 0.0016055,
        "meta_mean_motion_dot": 2.856e-05,
        "meta_mean_motion_ddot": 0,
        "tle_line1": "1 34432U 93036RZ  25337.10297536  .00002856  00000+0  16055-2 0  9999",
        "tle_line2": "2 34432  73.8275 119.3014 0183185 203.4360 276.5797 14.02836728855498"
      },
      "geometry": {
        "type": "Point",
        "coordinates": [
          136.0204227051065,
          45.53422531896295
        ]
      }
    },
    {
      "type": "Feature",
      "properties": {
        "norad_id": 34433,
        "name": "COSMOS 2251 DEB",
        "group": "cosmos-2251-debris",
        "lat": 71.54852023044032,
        "lon": -67.71816315763022,
        "alt_km": 934.7735450384325,
        "timestamp": "2025-12-03T08:58:46.397238+00:00",
        "meta_object_name": "COSMOS 2251 DEB",
        "meta_object_id": "1993-036SA",
        "meta_epoch": "2025-12-03T00:00:45.111168",
        "meta_mean_motion": 14.12779901,
        "meta_eccentricity": 0.0151736,
        "meta_inclination": 74.0107,
        "meta_ra_of_asc_node": 172.1866,
        "meta_arg_of_pericenter": 312.4155,
        "meta_mean_anomaly": 46.4228,
        "meta_ephemeris_type": 0,
        "meta_classification_type": "U",
        "meta_norad_cat_id": 34433,
        "meta_element_set_no": 999,
        "meta_rev_at_epoch": 85812,
        "meta_bstar": 0.0017302,
        "meta_mean_motion_dot": 3.559e-05,
        "meta_mean_motion_ddot": 0,
        "tle_line1": "1 34433U 93036SA  25337.00052212  .00003559  00000+0  17302-2 0  9996",
        "tle_line2": "2 34433  74.0107 172.1866 0151736 312.4155  46.4228 14.12779901858124"
      },
      "geometry": {
        "type": "Point",
        "coordinates": [
          -67.71816315763022,
          71.54852023044032
        ]
      }
    }
  ]
}